[{"OBJECT_NAME":"SCS-01 J","OBJECT_ID":"2025-100J","EPOCH":"2026-03-09T22:31:25.904064","MEAN_MOTION":15.31338011,"ECCENTRICITY":0.00063909,"INCLINATION":97.3693,"RA_OF_ASC_NODE":145.4824,"ARG_OF_PERICENTER":272.025,"MEAN_ANOMALY":88.026,"EPHEMERIS_TYPE":0,"CLASSIFICATION_TYPE":"U","NORAD_CAT_ID":63990,"ELEMENT_SET_NO":999,"REV_AT_EPOCH":4563,"BSTAR":0.0011832888,"MEAN_MOTION_DOT":0.00035886,"MEAN_MOTION_DDOT":0},{"OBJECT_NAME":"STARLINK-35749","OBJECT_ID":"2025-283B","EPOCH":"2026-03-09T06:33:36.995904","MEAN_MOTION":15.30182928,"ECCENTRICITY":7.951e-5,"INCLINATION":53.1626,"RA_OF_ASC_NODE":25.8696,"ARG_OF_PERICENTER":87.5951,"MEAN_ANOMALY":272.5141,"EPHEMERIS_TYPE":0,"CLASSIFICATION_TYPE":"U","NORAD_CAT_ID":66879,"ELEMENT_SET_NO":999,"REV_AT_EPOCH":1578,"BSTAR":-0.00058181075,"MEAN_MOTION_DOT":-0.00017541,"MEAN_MOTION_DDOT":0}]
